{
  "type": "FeatureCollection",
  "features": [
    {
      "type": "Feature",
      "properties": {
        "norad_id": 66844,
        "name": "STARLINK-36073",
        "group": "last-30-days",
        "lat": 36.29724179695427,
        "lon": -144.95883536209124,
        "alt_km": 325.0187402178826,
        "timestamp": "2025-12-12T11:38:30.171469+00:00",
        "meta_object_name": "STARLINK-36073",
        "meta_object_id": "2025-280Z",
        "meta_epoch": "2025-12-12T04:00:01.998720",
        "meta_mean_motion": 15.8257225,
        "meta_eccentricity": 0.0003952,
        "meta_inclination": 69.9912,
        "meta_ra_of_asc_node": 200.4271,
        "meta_arg_of_pericenter": 278.8382,
        "meta_mean_anomaly": 107.6715,
        "meta_ephemeris_type": 0,
        "meta_classification_type": "U",
        "meta_norad_cat_id": 66844,
        "meta_element_set_no": 999,
        "meta_rev_at_epoch": 280,
        "meta_bstar": -0.010052,
        "meta_mean_motion_dot": -0.01851119,
        "meta_mean_motion_ddot": 0,
        "tle_line1": "1 66844U 25280Z   25346.16668980 -.01851119  00000+0 -10052-1 0  9995",
        "tle_line2": "2 66844  69.9912 200.4271 0003952 278.8382 107.6715 15.82572250  2803"
      },
      "geometry": {
        "type": "Point",
        "coordinates": [
          -144.95883536209124,
          36.29724179695427
        ]
      }
    },
    {
      "type": "Feature",
      "properties": {
        "norad_id": 66845,
        "name": "STARLINK-36068",
        "group": "last-30-days",
        "lat": 43.05185846910857,
        "lon": -140.5889132267477,
        "alt_km": 324.1754682304372,
        "timestamp": "2025-12-12T11:38:30.171479+00:00",
        "meta_object_name": "STARLINK-36068",
        "meta_object_id": "2025-280AA",
        "meta_epoch": "2025-12-12T04:00:01.998720",
        "meta_mean_motion": 15.82662279,
        "meta_eccentricity": 0.0003894,
        "meta_inclination": 69.9909,
        "meta_ra_of_asc_node": 200.4184,
        "meta_arg_of_pericenter": 273.8446,
        "meta_mean_anomaly": 120.1118,
        "meta_ephemeris_type": 0,
        "meta_classification_type": "U",
        "meta_norad_cat_id": 66845,
        "meta_element_set_no": 999,
        "meta_rev_at_epoch": 280,
        "meta_bstar": -0.010125,
        "meta_mean_motion_dot": -0.01869789,
        "meta_mean_motion_ddot": 0,
        "tle_line1": "1 66845U 25280AA  25346.16668980 -.01869789  00000+0 -10125-1 0  9999",
        "tle_line2": "2 66845  69.9909 200.4184 0003894 273.8446 120.1118 15.82662279  2802"
      },
      "geometry": {
        "type": "Point",
        "coordinates": [
          -140.5889132267477,
          43.05185846910857
        ]
      }
    },
    {
      "type": "Feature",
      "properties": {
        "norad_id": 66846,
        "name": "STARLINK-36055",
        "group": "last-30-days",
        "lat": 39.84923446544175,
        "lon": -142.78167888839863,
        "alt_km": 324.71984038598475,
        "timestamp": "2025-12-12T11:38:30.171491+00:00",
        "meta_object_name": "STARLINK-36055",
        "meta_object_id": "2025-280AB",
        "meta_epoch": "2025-12-12T04:00:01.998720",
        "meta_mean_motion": 15.82601843,
        "meta_eccentricity": 0.0004039,
        "meta_inclination": 69.991,
        "meta_ra_of_asc_node": 200.4223,
        "meta_arg_of_pericenter": 275.2123,
        "meta_mean_anomaly": 115.2105,
        "meta_ephemeris_type": 0,
        "meta_classification_type": "U",
        "meta_norad_cat_id": 66846,
        "meta_element_set_no": 999,
        "meta_rev_at_epoch": 280,
        "meta_bstar": -0.010104,
        "meta_mean_motion_dot": -0.01861944,
        "meta_mean_motion_ddot": 0,
        "tle_line1": "1 66846U 25280AB  25346.16668980 -.01861944  00000+0 -10104-1 0  9992",
        "tle_line2": "2 66846  69.9910 200.4223 0004039 275.2123 115.2105 15.82601843  2800"
      },
      "geometry": {
        "type": "Point",
        "coordinates": [
          -142.78167888839863,
          39.84923446544175
        ]
      }
    },
    {
      "type": "Feature",
      "properties": {
        "norad_id": 66847,
        "name": "STARLINK-36061",
        "group": "last-30-days",
        "lat": 41.42358402416241,
        "lon": -141.7341641870562,
        "alt_km": 324.445828728366,
        "timestamp": "2025-12-12T11:38:30.171501+00:00",
        "meta_object_name": "STARLINK-36061",
        "meta_object_id": "2025-280AC",
        "meta_epoch": "2025-12-12T04:00:01.998720",
        "meta_mean_motion": 15.82632362,
        "meta_eccentricity": 0.000399,
        "meta_inclination": 69.991,
        "meta_ra_of_asc_node": 200.4207,
        "meta_arg_of_pericenter": 274.7431,
        "meta_mean_anomaly": 117.4079,
        "meta_ephemeris_type": 0,
        "meta_classification_type": "U",
        "meta_norad_cat_id": 66847,
        "meta_element_set_no": 999,
        "meta_rev_at_epoch": 275,
        "meta_bstar": -0.01009,
        "meta_mean_motion_dot": -0.01861964,
        "meta_mean_motion_ddot": 0,
        "tle_line1": "1 66847U 25280AC  25346.16668980 -.01861964  00000+0 -10090-1 0  9999",
        "tle_line2": "2 66847  69.9910 200.4207 0003990 274.7431 117.4079 15.82632362  2752"
      },
      "geometry": {
        "type": "Point",
        "coordinates": [
          -141.7341641870562,
          41.42358402416241
        ]
      }
    },
    {
      "type": "Feature",
      "properties": {
        "norad_id": 66848,
        "name": "STARLINK-36091",
        "group": "last-30-days",
        "lat": 32.25040948706959,
        "lon": -98.64045445092655,
        "alt_km": 294.46482837005624,
        "timestamp": "2025-12-12T11:38:30.171511+00:00",
        "meta_object_name": "STARLINK-36091",
        "meta_object_id": "2025-281A",
        "meta_epoch": "2025-12-12T04:00:01.998720",
        "meta_mean_motion": 15.92066505,
        "meta_eccentricity": 0.0001721,
        "meta_inclination": 43.0014,
        "meta_ra_of_asc_node": 125.9565,
        "meta_arg_of_pericenter": 274.7982,
        "meta_mean_anomaly": 187.0238,
        "meta_ephemeris_type": 0,
        "meta_classification_type": "U",
        "meta_norad_cat_id": 66848,
        "meta_element_set_no": 999,
        "meta_rev_at_epoch": 131,
        "meta_bstar": -0.0033867,
        "meta_mean_motion_dot": -0.01168525,
        "meta_mean_motion_ddot": 0.00040192,
        "tle_line1": "1 66848U 25281A   25346.16668980 -.01168525  40192-3 -33867-2 0  9992",
        "tle_line2": "2 66848  43.0014 125.9565 0001721 274.7982 187.0238 15.92066505  1312"
      },
      "geometry": {
        "type": "Point",
        "coordinates": [
          -98.64045445092655,
          32.25040948706959
        ]
      }
    },
    {
      "type": "Feature",
      "properties": {
        "norad_id": 66849,
        "name": "STARLINK-36102",
        "group": "last-30-days",
        "lat": 31.134792090567277,
        "lon": -96.43746388704352,
        "alt_km": 294.47803924112486,
        "timestamp": "2025-12-12T11:38:30.171521+00:00",
        "meta_object_name": "STARLINK-36102",
        "meta_object_id": "2025-281B",
        "meta_epoch": "2025-12-12T04:00:01.998720",
        "meta_mean_motion": 15.92107752,
        "meta_eccentricity": 0.0001608,
        "meta_inclination": 43.0016,
        "meta_ra_of_asc_node": 125.9507,
        "meta_arg_of_pericenter": 277.0582,
        "meta_mean_anomaly": 186.9007,
        "meta_ephemeris_type": 0,
        "meta_classification_type": "U",
        "meta_norad_cat_id": 66849,
        "meta_element_set_no": 999,
        "meta_rev_at_epoch": 131,
        "meta_bstar": -0.0033956,
        "meta_mean_motion_dot": -0.01174037,
        "meta_mean_motion_ddot": 0.00040555,
        "tle_line1": "1 66849U 25281B   25346.16668980 -.01174037  40555-3 -33956-2 0  9990",
        "tle_line2": "2 66849  43.0016 125.9507 0001608 277.0582 186.9007 15.92107752  1319"
      },
      "geometry": {
        "type": "Point",
        "coordinates": [
          -96.43746388704352,
          31.134792090567277
        ]
      }
    },
    {
      "type": "Feature",
      "properties": {
        "norad_id": 66850,
        "name": "STARLINK-36105",
        "group": "last-30-days",
        "lat": 29.584211877294685,
        "lon": -93.5698848313675,
        "alt_km": 294.45412903656324,
        "timestamp": "2025-12-12T11:38:30.171534+00:00",
        "meta_object_name": "STARLINK-36105",
        "meta_object_id": "2025-281C",
        "meta_epoch": "2025-12-12T04:00:01.998720",
        "meta_mean_motion": 15.921604,
        "meta_eccentricity": 0.000151,
        "meta_inclination": 43.0014,
        "meta_ra_of_asc_node": 125.9436,
        "meta_arg_of_pericenter": 272.7255,
        "meta_mean_anomaly": 194.0991,
        "meta_ephemeris_type": 0,
        "meta_classification_type": "U",
        "meta_norad_cat_id": 66850,
        "meta_element_set_no": 999,
        "meta_rev_at_epoch": 131,
        "meta_bstar": -0.003409,
        "meta_mean_motion_dot": -0.01181815,
        "meta_mean_motion_ddot": 0.00041069,
        "tle_line1": "1 66850U 25281C   25346.16668980 -.01181815  41069-3 -34090-2 0  9995",
        "tle_line2": "2 66850  43.0014 125.9436 0001510 272.7255 194.0991 15.92160400  1312"
      },
      "geometry": {
        "type": "Point",
        "coordinates": [
          -93.5698848313675,
          29.584211877294685
        ]
      }
    }
  ]
}